ONEWEB-0116             
1 48046U 21025E   24173.30767457 -.00000192  00000+0 -56063-3 0  9994
2 48046  87.8932 104.6846 0002211  82.4031 277.7349 13.13471692158363
ONEWEB-0150             
1 48047U 21025F   24173.35846037  .00000062  00000+0  13562-3 0  9993
2 48047  87.8929 104.6936 0001911  78.8190 281.3154 13.13470379158266
ONEWEB-0107             
1 48048U 21025G   24173.36004067  .00000017  00000+0  11366-4 0  9995
2 48048  87.8929 104.6912 0001751  76.6178 283.5146 13.13470269158246
ONEWEB-0101             
1 48049U 21025H   24173.32354577  .00000194  00000+0  49586-3 0  9996
2 48049  87.8933 104.7148 0002076  76.2139 283.9221 13.13470233158214
ONEWEB-0113             
1 48050U 21025J   24173.83456369 -.00003421  00000+0 -94038-2 0  9995
2 48050  87.8933 104.5947 0002864  77.8987 282.2462 13.13486562158361
ONEWEB-0112             
1 48051U 21025K   24173.36480254 -.00000080  00000+0 -25328-3 0  9999
2 48051  87.8928 104.6878 0001976  80.8936 279.2417 13.13470859158314
ONEWEB-0156             
1 48052U 21025L   24173.37432240 -.00000293  00000+0 -83705-3 0  9992
2 48052  87.8933 104.6831 0001992  80.0068 280.1286 13.13471728158294
ONEWEB-0161             
1 48053U 21025M   24173.34735577  .00000293  00000+0  76788-3 0  9990
2 48053  87.8935 104.6961 0001937  73.8321 286.3021 13.13470122158227
